CORAL                   
1 67685U 98067YB  26053.84384527  .00046938  00000+0  80080-3 0  9997
2 67685  51.6309 145.5236 0011911 133.1205 227.0782 15.50787508  2480
ISS OBJECT YC           
1 67686U 98067YC  26053.26221280  .00051037  00000+0  86445-3 0  9997
2 67686  51.6313 148.3904 0007688 102.1023 258.0827 15.50999605  2396
LEOPARD                 
1 67687U 98067YD  26053.71565522  .00045416  00000+0  77931-3 0  9992
2 67687  51.6314 146.1685 0007768 106.0969 254.0876 15.50684612  2389
ISS OBJECT YE           
1 67688U 98067YE  26053.26289914  .00047740  00000+0  81295-3 0  9991
2 67688  51.6324 148.3958 0007695 103.3001 256.8847 15.50878079  2317
PRC TEST SPACECRAFT 4   
1 67689U 26024A   26053.62153162 -.00000015  00000+0  22580-4 0  9999
2 67689  49.9851  93.5057 0006179 302.1321  57.9020 14.91676131  2338
CZ-2F R/B               
1 67690U 26024B   26053.59057330  .00022030  00000+0  40766-3 0  9992
2 67690  49.9857  90.2924 0176162 212.3028 146.7047 15.33668096  2377
CZ-2F DEB               
1 67691U 26024C   26053.52496960  .00820405  10457-4  88312-3 0  9995
2 67691  49.9054  86.6751 0217324 221.8974 136.5196 15.76842539  2404
CZ-2F DEB               
1 67692U 26024D   26053.57645824  .00238087  00000+0  46007-2 0  9997
2 67692  50.3143  92.6247 0253282 220.5758 137.6078 15.18855418  2324
STARLINK-36748          
1 67693U 26025A   26053.83336806 -.02004937  00000+0 -12196-1 0  9995
2 67693  97.2814 164.6263 0001877 100.2116  56.8184 15.80594103  3467
STARLINK-36753          
1 67694U 26025B   26053.83336806 -.00025406  00000+0 -13220-3 0  9999
2 67694  97.2794 164.6375 0001161 103.5025  83.2911 15.80830375  3624
STARLINK-36750          
1 67695U 26025C   26053.83336806 -.00000872  00000+0 -38119-5 0  9996
2 67695  97.2815 164.6305 0000844  94.7386  73.1079 15.80831759  3462
STARLINK-36401          
1 67696U 26025D   26053.83336806 -.00087333  00000+0 -45888-3 0  9993
2 67696  97.2793 164.6331 0000951 105.6617  70.9944 15.80859014  3465
