CCSDS_OMM_VERS = 2.0
CREATION_DATE  = 
ORIGINATOR     = 

OBJECT_NAME    = CORAL
OBJECT_ID      = 1998-067YB
CENTER_NAME    = EARTH
REF_FRAME      = TEME
TIME_SYSTEM    = UTC
MEAN_ELEMENT_THEORY = SGP/SGP4

EPOCH          = 2026-02-22T20:15:08.231328
MEAN_MOTION    = 15.50787508
ECCENTRICITY   = .0011911
INCLINATION    = 51.6309
RA_OF_ASC_NODE = 145.5236
ARG_OF_PERICENTER = 133.1205
MEAN_ANOMALY   = 227.0782

EPHEMERIS_TYPE = 0
CLASSIFICATION_TYPE = U
NORAD_CAT_ID   = 67685
ELEMENT_SET_NO = 999
REV_AT_EPOCH   = 248
BSTAR          = .8008E-3
MEAN_MOTION_DOT = .46938E-3
MEAN_MOTION_DDOT = 0

CCSDS_OMM_VERS = 2.0
CREATION_DATE  = 
ORIGINATOR     = 

OBJECT_NAME    = ISS OBJECT YC
OBJECT_ID      = 1998-067YC
CENTER_NAME    = EARTH
REF_FRAME      = TEME
TIME_SYSTEM    = UTC
MEAN_ELEMENT_THEORY = SGP/SGP4

EPOCH          = 2026-02-22T06:17:35.185920
MEAN_MOTION    = 15.50999605
ECCENTRICITY   = .0007688
INCLINATION    = 51.6313
RA_OF_ASC_NODE = 148.3904
ARG_OF_PERICENTER = 102.1023
MEAN_ANOMALY   = 258.0827

EPHEMERIS_TYPE = 0
CLASSIFICATION_TYPE = U
NORAD_CAT_ID   = 67686
ELEMENT_SET_NO = 999
REV_AT_EPOCH   = 239
BSTAR          = .86445E-3
MEAN_MOTION_DOT = .51037E-3
MEAN_MOTION_DDOT = 0

CCSDS_OMM_VERS = 2.0
CREATION_DATE  = 
ORIGINATOR     = 

OBJECT_NAME    = LEOPARD
OBJECT_ID      = 1998-067YD
CENTER_NAME    = EARTH
REF_FRAME      = TEME
TIME_SYSTEM    = UTC
MEAN_ELEMENT_THEORY = SGP/SGP4

EPOCH          = 2026-02-22T17:10:32.611008
MEAN_MOTION    = 15.50684612
ECCENTRICITY   = .0007768
INCLINATION    = 51.6314
RA_OF_ASC_NODE = 146.1685
ARG_OF_PERICENTER = 106.0969
MEAN_ANOMALY   = 254.0876

EPHEMERIS_TYPE = 0
CLASSIFICATION_TYPE = U
NORAD_CAT_ID   = 67687
ELEMENT_SET_NO = 999
REV_AT_EPOCH   = 238
BSTAR          = .77931E-3
MEAN_MOTION_DOT = .45416E-3
MEAN_MOTION_DDOT = 0

CCSDS_OMM_VERS = 2.0
CREATION_DATE  = 
ORIGINATOR     = 

OBJECT_NAME    = ISS OBJECT YE
OBJECT_ID      = 1998-067YE
CENTER_NAME    = EARTH
REF_FRAME      = TEME
TIME_SYSTEM    = UTC
MEAN_ELEMENT_THEORY = SGP/SGP4

EPOCH          = 2026-02-22T06:18:34.485696
MEAN_MOTION    = 15.50878079
ECCENTRICITY   = .0007695
INCLINATION    = 51.6324
RA_OF_ASC_NODE = 148.3958
ARG_OF_PERICENTER = 103.3001
MEAN_ANOMALY   = 256.8847

EPHEMERIS_TYPE = 0
CLASSIFICATION_TYPE = U
NORAD_CAT_ID   = 67688
ELEMENT_SET_NO = 999
REV_AT_EPOCH   = 231
BSTAR          = .81295E-3
MEAN_MOTION_DOT = .4774E-3
MEAN_MOTION_DDOT = 0

CCSDS_OMM_VERS = 2.0
CREATION_DATE  = 
ORIGINATOR     = 

OBJECT_NAME    = PRC TEST SPACECRAFT 4
OBJECT_ID      = 2026-024A
CENTER_NAME    = EARTH
REF_FRAME      = TEME
TIME_SYSTEM    = UTC
MEAN_ELEMENT_THEORY = SGP/SGP4

EPOCH          = 2026-02-22T14:55:00.331968
MEAN_MOTION    = 14.91676131
ECCENTRICITY   = .0006179
INCLINATION    = 49.9851
RA_OF_ASC_NODE = 93.5057
ARG_OF_PERICENTER = 302.1321
MEAN_ANOMALY   = 57.9020

EPHEMERIS_TYPE = 0
CLASSIFICATION_TYPE = U
NORAD_CAT_ID   = 67689
ELEMENT_SET_NO = 999
REV_AT_EPOCH   = 233
BSTAR          = .2258E-4
MEAN_MOTION_DOT = -.15E-6
MEAN_MOTION_DDOT = 0

CCSDS_OMM_VERS = 2.0
CREATION_DATE  = 
ORIGINATOR     = 

OBJECT_NAME    = CZ-2F R/B
OBJECT_ID      = 2026-024B
CENTER_NAME    = EARTH
REF_FRAME      = TEME
TIME_SYSTEM    = UTC
MEAN_ELEMENT_THEORY = SGP/SGP4

EPOCH          = 2026-02-22T14:10:25.533120
MEAN_MOTION    = 15.33668096
ECCENTRICITY   = .0176162
INCLINATION    = 49.9857
RA_OF_ASC_NODE = 90.2924
ARG_OF_PERICENTER = 212.3028
MEAN_ANOMALY   = 146.7047

EPHEMERIS_TYPE = 0
CLASSIFICATION_TYPE = U
NORAD_CAT_ID   = 67690
ELEMENT_SET_NO = 999
REV_AT_EPOCH   = 237
BSTAR          = .40766E-3
MEAN_MOTION_DOT = .2203E-3
MEAN_MOTION_DDOT = 0

CCSDS_OMM_VERS = 2.0
CREATION_DATE  = 
ORIGINATOR     = 

OBJECT_NAME    = CZ-2F DEB
OBJECT_ID      = 2026-024C
CENTER_NAME    = EARTH
REF_FRAME      = TEME
TIME_SYSTEM    = UTC
MEAN_ELEMENT_THEORY = SGP/SGP4

EPOCH          = 2026-02-22T12:35:57.373440
MEAN_MOTION    = 15.76842539
ECCENTRICITY   = .0217324
INCLINATION    = 49.9054
RA_OF_ASC_NODE = 86.6751
ARG_OF_PERICENTER = 221.8974
MEAN_ANOMALY   = 136.5196

EPHEMERIS_TYPE = 0
CLASSIFICATION_TYPE = U
NORAD_CAT_ID   = 67691
ELEMENT_SET_NO = 999
REV_AT_EPOCH   = 240
BSTAR          = .88312E-3
MEAN_MOTION_DOT = .820405E-2
MEAN_MOTION_DDOT = .10457E-4

CCSDS_OMM_VERS = 2.0
CREATION_DATE  = 
ORIGINATOR     = 

OBJECT_NAME    = CZ-2F DEB
OBJECT_ID      = 2026-024D
CENTER_NAME    = EARTH
REF_FRAME      = TEME
TIME_SYSTEM    = UTC
MEAN_ELEMENT_THEORY = SGP/SGP4

EPOCH          = 2026-02-22T13:50:05.991936
MEAN_MOTION    = 15.18855418
ECCENTRICITY   = .0253282
INCLINATION    = 50.3143
RA_OF_ASC_NODE = 92.6247
ARG_OF_PERICENTER = 220.5758
MEAN_ANOMALY   = 137.6078

EPHEMERIS_TYPE = 0
CLASSIFICATION_TYPE = U
NORAD_CAT_ID   = 67692
ELEMENT_SET_NO = 999
REV_AT_EPOCH   = 232
BSTAR          = .46007E-2
MEAN_MOTION_DOT = .238087E-2
MEAN_MOTION_DDOT = 0

CCSDS_OMM_VERS = 2.0
CREATION_DATE  = 
ORIGINATOR     = 

OBJECT_NAME    = STARLINK-36748
OBJECT_ID      = 2026-025A
CENTER_NAME    = EARTH
REF_FRAME      = TEME
TIME_SYSTEM    = UTC
MEAN_ELEMENT_THEORY = SGP/SGP4

EPOCH          = 2026-02-22T20:00:03.000384
MEAN_MOTION    = 15.80594103
ECCENTRICITY   = .0001877
INCLINATION    = 97.2814
RA_OF_ASC_NODE = 164.6263
ARG_OF_PERICENTER = 100.2116
MEAN_ANOMALY   = 56.8184

EPHEMERIS_TYPE = 0
CLASSIFICATION_TYPE = U
NORAD_CAT_ID   = 67693
ELEMENT_SET_NO = 999
REV_AT_EPOCH   = 346
BSTAR          = -.12196E-1
MEAN_MOTION_DOT = -.2004937E-1
MEAN_MOTION_DDOT = 0

CCSDS_OMM_VERS = 2.0
CREATION_DATE  = 
ORIGINATOR     = 

OBJECT_NAME    = STARLINK-36753
OBJECT_ID      = 2026-025B
CENTER_NAME    = EARTH
REF_FRAME      = TEME
TIME_SYSTEM    = UTC
MEAN_ELEMENT_THEORY = SGP/SGP4

EPOCH          = 2026-02-22T20:00:03.000384
MEAN_MOTION    = 15.80830375
ECCENTRICITY   = .0001161
INCLINATION    = 97.2794
RA_OF_ASC_NODE = 164.6375
ARG_OF_PERICENTER = 103.5025
MEAN_ANOMALY   = 83.2911

EPHEMERIS_TYPE = 0
CLASSIFICATION_TYPE = U
NORAD_CAT_ID   = 67694
ELEMENT_SET_NO = 999
REV_AT_EPOCH   = 362
BSTAR          = -.1322E-3
MEAN_MOTION_DOT = -.25406E-3
MEAN_MOTION_DDOT = 0

CCSDS_OMM_VERS = 2.0
CREATION_DATE  = 
ORIGINATOR     = 

OBJECT_NAME    = STARLINK-36750
OBJECT_ID      = 2026-025C
CENTER_NAME    = EARTH
REF_FRAME      = TEME
TIME_SYSTEM    = UTC
MEAN_ELEMENT_THEORY = SGP/SGP4

EPOCH          = 2026-02-22T20:00:03.000384
MEAN_MOTION    = 15.80831759
ECCENTRICITY   = .0000844
INCLINATION    = 97.2815
RA_OF_ASC_NODE = 164.6305
ARG_OF_PERICENTER = 94.7386
MEAN_ANOMALY   = 73.1079

EPHEMERIS_TYPE = 0
CLASSIFICATION_TYPE = U
NORAD_CAT_ID   = 67695
ELEMENT_SET_NO = 999
REV_AT_EPOCH   = 346
BSTAR          = -.38119E-5
MEAN_MOTION_DOT = -.872E-5
MEAN_MOTION_DDOT = 0

CCSDS_OMM_VERS = 2.0
CREATION_DATE  = 
ORIGINATOR     = 

OBJECT_NAME    = STARLINK-36401
OBJECT_ID      = 2026-025D
CENTER_NAME    = EARTH
REF_FRAME      = TEME
TIME_SYSTEM    = UTC
MEAN_ELEMENT_THEORY = SGP/SGP4

EPOCH          = 2026-02-22T20:00:03.000384
MEAN_MOTION    = 15.80859014
ECCENTRICITY   = .0000951
INCLINATION    = 97.2793
RA_OF_ASC_NODE = 164.6331
ARG_OF_PERICENTER = 105.6617
MEAN_ANOMALY   = 70.9944

EPHEMERIS_TYPE = 0
CLASSIFICATION_TYPE = U
NORAD_CAT_ID   = 67696
ELEMENT_SET_NO = 999
REV_AT_EPOCH   = 346
BSTAR          = -.45888E-3
MEAN_MOTION_DOT = -.87333E-3
MEAN_MOTION_DDOT = 0

